SPAINSAT NG I           
1 62852U 25021A   26195.62961729  .00000143  00000+0  00000+0 0  9994
2 62852   0.0173  38.7284 0000185 233.4175 275.9874  1.00269980  4266
QZS-6 (MICHIBIKI-6)     
1 62876U 25023A   26195.60484997 -.00000239  00000+0  00000+0 0  9994
2 62876   0.0104 356.5330 0001803 135.8076 108.3029  1.00267117  5220
ZHONGXING-10R           
1 63075U 25036A   26195.60536234 -.00000360  00000+0  00000+0 0  9997
2 63075   0.0176 216.0861 0004177 291.5304 113.2910  1.00272479  5233
TJS-15                  
1 63157U 25045A   26194.74757417 -.00000269  00000+0  00000+0 0  9998
2 63157   0.3063  85.6357 0003351 295.0634 274.4075  1.00269569  5025
TIANLIAN 2-04           
1 63361U 25062A   26195.64611980 -.00000139  00000+0  00000+0 0  9994
2 63361   4.3058 274.0451 0031595   9.3715 321.7066  1.00270850  4879
TJS-16                  
1 63397U 25064A   26194.76445146 -.00000111  00000+0  00000+0 0  9996
2 63397   1.1643  81.2920 0002489 290.3397 355.8257  1.00270806  4657
TJS-17                  
1 63524U 25073A   26194.76226279 -.00000076  00000+0  00000+0 0  9992
2 63524   1.1304  82.4646 0000992 303.0552 345.0327  1.00270523  4557
TIANLIAN 2-05           
1 63662U 25084A   26195.56292044  .00000120  00000+0  00000+0 0  9998
2 63662   4.3836 279.5224 0002560 153.9894  81.9210  1.00271100  4650
TJS-19                  
1 63924U 25097A   26194.73157992 -.00000278  00000+0  00000+0 0  9998
2 63924   3.2430 317.8726 0003966 245.4291 132.8569  1.00266719  4418
CHINASAT 3B             
1 64062U 25106A   26195.59220669 -.00000053  00000+0  00000+0 0  9991
2 64062   0.0249 140.4554 0003989   4.7562 167.7480  1.00272367  4332
SXM-10                  
1 64290U 25122A   26194.60932681 -.00000021  00000+0  00000+0 0  9992
2 64290   0.0157  36.2449 0001828 322.9748  35.4661  1.00271903  3942
COSMOS 2589             
1 64467U 25131A   26194.72299990 -.00000296  00000+0  00000+0 0  9994
2 64467   0.0273 122.3287 0000927  83.5150  84.0384  1.00273922  3822
CHINASAT 9C             
1 64470U 25132A   26195.65249720  .00000000  00000+0  00000+0 0  9990
2 64470   0.0171  71.4534 0002939  43.6478 144.5175  1.00267113  4429
MTG-S1                  
1 64723U 25143A   26195.55893376 -.00000015  00000+0  00000+0 0  9991
2 64723   0.5848 344.9295 0003474 261.8054 246.4891  1.00273373  3697
DROR 1                  
1 64784U 25148A   26195.55815375 -.00000042  00000+0  00000+0 0  9996
2 64784   0.0475 257.6339 0001974 138.0487  93.6666  1.00271800  3574
SHIYAN-29               
1 65486U 25196A   26194.59516620 -.00000285  00000+0  00000+0 0  9992
2 65486  28.8495  18.2022 0013367 177.9193  44.8968  1.00276730  3142
NUSANTARA LIMA (NUSANT*)
1 65588U 25205A   26195.58138277 -.00000365  00000+0  00000+0 0  9993
2 65588   0.0129 103.0807 0000324 106.0959  45.3967  1.00268841  2998
TJS-20                  
1 66142U 25238A   26195.63223962  .00000022  00000+0  00000+0 0  9997
2 66142   5.4094 299.4447 0004287 182.1446 100.9619  1.00274625  2600
CMS-03 (GSAT-7R)        
1 66311U 25249B   26195.57366941 -.00000084  00000+0  00000+0 0  9994
2 66311   0.0240 286.6445 0001459 152.9510 133.3289  1.00271242  2620
VIASAT-3 F2             
1 66454U 25261A   26195.32953781 -.00000240  00000+0  00000+0 0  9997
2 66454   0.0014 307.9780 0000749 275.9845 107.8920  1.00270448  3068
SHIJIAN-28 (SJ-28)      
1 66549U 25277A   26195.61806743 -.00000364  00000+0  00000+0 0  9993
2 66549   4.4690 271.6973 0001170  22.5244 337.5657  1.00267129  2420
TJS-22                  
1 66990U 25290A   26193.80754925 -.00000005  00000+0  00000+0 0  9993
2 66990   1.4677 286.9097 0002691 318.9700  42.0235  1.00269739  2289
TJS-23                  
1 67226U 25306A   26195.52676570  .00000016  00000+0  00000+0 0  9995
2 67226   5.5269 297.3431 0005026 194.3390 165.9025  1.00275384  2160
FENGYUN 4C              
1 67246U 25312A   26194.65865777 -.00000328  00000+0  00000+0 0  9993
2 67246   0.0385 175.3203 0000658  48.7481  77.5697  1.00269440  2048
SHIJIAN-29A (SJ-29A)    
1 67302U 25315A   26195.62008119 -.00000078  00000+0  00000+0 0  9998
2 67302   3.4655  94.4505 0004870  52.5068  81.9068  1.00272360  1896
SHIJIAN-29B (SJ-29B)    
1 67403U 25315C   26195.62008117 -.00000079  00000+0  00000+0 0  9999
2 67403   3.4645  94.4432 0004987  54.2548  80.2132  1.00272646  1966
ELEKTRO-L 5             
1 67756U 26028A   26194.97795733 -.00000103  00000+0  00000+0 0  9994
2 67756   0.2090 324.1006 0002065 175.9654 219.9345  1.00271936  1520
JAM-E JAM 1             
1 67757U 26028B   26195.56578045  .00000148  00000+0  00000+0 0  9994
2 67757   0.2078 312.6225 0001712 320.8292 256.6751  1.00273497  1397
ECHOSTAR 25             
1 68126U 26045A   26195.48655975  .00000000  00000+0  00000+0 0  9990
2 68126   0.0242  64.7404 0002157  51.3190 241.4710  1.00277458  1264
TJS-24                  
1 69235U 26116A   26195.60485000 -.00000239  00000+0  00000+0 0  9990
2 69235   0.0761  94.9953 0000373 126.9028  18.6042  1.00269910   505
